STARLINK-32694          
1 62494U 25003H   25349.85711666  .00010803  00000+0  40110-3 0  9998
2 62494  43.0008  42.1407 0001289 272.0234  88.0470 15.27615348 53850
STARLINK-32708          
1 62495U 25003J   25349.49692615  .00023636  00000+0  86523-3 0  9997
2 62495  43.0023  44.5967 0001607 264.4221  95.6447 15.27597415 53672
STARLINK-32718          
1 62496U 25003K   25349.85324995  .00041168  00000+0  14939-2 0  9992
2 62496  43.0047  42.1140 0002093 276.0511  84.0102 15.27652416 53737
STARLINK-32729          
1 62497U 25003L   25349.86096888  .00017608  00000+0  64709-3 0  9994
2 62497  43.0046  42.1626 0001418 284.8435  75.2260 15.27618808 53855
STARLINK-32739          
1 62498U 25003M   25349.87638816  .00024535  00000+0  89685-3 0  9996
2 62498  43.0056  42.2846 0002195 286.4680  73.5930 15.27626531 53807
STARLINK-32714          
1 62499U 25003N   25349.83928186  .00015351  00000+0  56604-3 0  9996
2 62499  42.9977  42.8700 0000242  64.3083 295.7794 15.27588948 53843
STARLINK-32685          
1 62500U 25003P   25349.57002289  .00027841  00000+0  10164-2 0  9994
2 62500  43.0004  44.2855 0001643 258.2532 101.8136 15.27613598 53752
STARLINK-32691          
1 62501U 25003Q   25349.87510700  .00030619  00000+0  11162-2 0  9996
2 62501  43.0063  42.2726 0002224 280.4671  79.5930 15.27620263 53840
STARLINK-32788          
1 62502U 25003R   25349.54432871  .00026494  00000+0  96823-3 0  9997
2 62502  43.0029  44.0885 0001714 260.1461  99.9198 15.27601006 53682
STARLINK-32768          
1 62503U 25003S   25349.85454764  .00020260  00000+0  74337-3 0  9998
2 62503  43.0022  42.1156 0001121 274.8832  85.1891 15.27596784 53731
STARLINK-32792          
1 62504U 25003T   25349.84554800  .00015692  00000+0  57837-3 0  9999
2 62504  42.9990  42.0489 0001232 272.0860  87.9850 15.27590420 53732
STARLINK-32725          
1 62505U 25003U   25349.84682440  .00026137  00000+0  95428-3 0  9996
2 62505  42.9944  42.0464 0003588 280.7599  79.2848 15.27633345 53731
STARLINK-32681          
1 62506U 25003V   25349.81577660  .00025633  00000+0  93741-3 0  9997
2 62506  43.0036  24.0922 0001703 267.3090  92.7566 15.27592591 54059
STARLINK-32679          
1 62507U 25003W   25349.84311965  .00008342  00000+0  31202-3 0  9997
2 62507  42.9967  42.8547 0001246 280.8488  79.2224 15.27612726 53845
STARLINK-32749          
1 62508U 25003X   25349.86482584  .00022695  00000+0  83082-3 0  9996
2 62508  43.0033  42.1917 0001210 290.2319  69.8403 15.27615805 53738
STARLINK-32744          
1 62509U 25003Y   25349.44310574  .00031952  00000+0  11645-2 0  9991
2 62509  42.9978  45.0519 0001847 270.6172  89.4468 15.27611961 53660
STARLINK-32701          
1 62510U 25003Z   25349.87896993  .00020966  00000+0  76897-3 0  9998
2 62510  43.0082  42.3038 0002649 263.0965  96.9586 15.27590987 53739
STARLINK-11452 [DTC]    
1 62511U 25004A   25349.34544387  .00201753  00000+0  15348-2 0  9997
2 62511  42.9991 219.1067 0000516 274.1980  85.8829 15.70887981 54867
STARLINK-11443 [DTC]    
1 62512U 25004B   25349.69520715  .00227370  00000+0  17218-2 0  9996
2 62512  43.0003 217.4463 0001541 181.4190 178.6674 15.70917374 53999
STARLINK-11440 [DTC]    
1 62513U 25004C   25349.67927765  .00140320  00000+0  10759-2 0  9993
2 62513  42.9960 217.3166 0000963 245.4258 114.6509 15.70900781 53993
STARLINK-11514 [DTC]    
1 62514U 25004D   25349.91328641  .00267704  00000+0  20126-2 0  9994
2 62514  42.9988 215.6203 0002463 256.0690 103.9904 15.70965352 54033
STARLINK-11508 [DTC]    
1 62515U 25004E   25349.90706460  .00165120  00000+0  12631-2 0  9994
2 62515  43.0017 215.5690 0002310 271.8221  88.2382 15.70873024 54033
STARLINK-11510 [DTC]    
1 62516U 25004F   25349.68458969  .00166312  00000+0  12683-2 0  9999
2 62516  42.9990 217.3581 0001122 227.8093 132.2680 15.70944033 53993
STARLINK-11512 [DTC]    
1 62517U 25004G   25349.63680579  .00149770  00000+0  11458-2 0  9997
2 62517  42.9973 216.9727 0001470 253.6151 106.4555 15.70922496 53993
STARLINK-11450 [DTC]    
1 62518U 25004H   25349.92299302  .00159086  00000+0  12178-2 0  9991
2 62518  43.0005 215.6966 0001416 228.7274 131.3472 15.70878033 54030
STARLINK-11507 [DTC]    
1 62519U 25004J   25349.92830255  .00166360  00000+0  12723-2 0  9999
2 62519  43.0027 215.7385 0002605 266.5362  93.5208 15.70874814 54039
STARLINK-11482 [DTC]    
1 62520U 25004K   25349.70569813  .00165320  00000+0  12649-2 0  9998
2 62520  42.9991 216.6314 0002993 285.0398  75.0139 15.70866387 54007
STARLINK-11528 [DTC]    
1 62521U 25004L   25349.68989816  .00259472  00000+0  19571-2 0  9998
2 62521  42.9997 217.3950 0001334 267.0476  93.0239 15.70913316 53996
STARLINK-11516 [DTC]    
1 62522U 25004M   25349.65804099  .00161450  00000+0  12350-2 0  9991
2 62522  42.9999 217.1414 0001801 247.4456 112.6221 15.70886107 53997
STARLINK-11527 [DTC]    
1 62523U 25004N   25349.64742439  .00161130  00000+0  12289-2 0  9996
2 62523  42.9971 217.0551 0001268 237.2679 122.8067 15.70958095 53997
STARLINK-32748          
1 62524U 25004P   25349.94907492  .00019177  00000+0  70416-3 0  9992
2 62524  42.9996 332.6181 0001083 223.7222 136.3544 15.27599866 53659
STARLINK-32777          
1 62525U 25004Q   25349.33504872  .00014741  00000+0  54390-3 0  9996
2 62525  43.0023 336.6106 0001407 256.6559 103.4136 15.27594177 53553
STARLINK-32741          
1 62526U 25004R   25349.38935529  .00018844  00000+0  69201-3 0  9994
2 62526  43.0018 332.6944 0001258 296.6714  63.4009 15.27605717 53608
STARLINK-32754          
1 62527U 25004S   25349.96449820  .00018794  00000+0  69029-3 0  9995
2 62527  43.0002 332.7333 0000913 273.4264  86.6483 15.27601792 52707
STARLINK-32786          
1 62528U 25004T   25349.66954325  .00014048  00000+0  51878-3 0  9995
2 62528  43.0009 333.9574 0000913 279.9239  80.1509 15.27595972 52663
STARLINK-32789          
1 62529U 25004U   25349.38244411  .00017356  00000+0  63838-3 0  9997
2 62529  42.9989 336.1005 0001390 275.2733  84.7960 15.27599020 53560
STARLINK-32791          
1 62530U 25004V   25349.36830954  .00011351  00000+0  42119-3 0  9998
2 62530  43.0027 335.9970 0001680 295.5101  64.5577 15.27594639 53562
STARLINK-32785          
1 62531U 25004W   25349.32476965  .00020683  00000+0  75844-3 0  9992
2 62531  43.0019 336.5391 0001261 276.2126  83.8582 15.27604740 53550
STARLINK-11538 [DTC]    
1 62554U 25006A   25349.86932849  .00305921  00000+0  22928-2 0  9991
2 62554  42.9984 284.7794 0001200 261.1805  98.8927 15.70924483 53427
STARLINK-11534 [DTC]    
1 62555U 25006B   25349.87463711  .00191716  00000+0  14565-2 0  9993
2 62555  43.0014 284.8222 0001287 252.9387 107.1340 15.70952964 53427
STARLINK-11515 [DTC]    
1 62556U 25006C   25349.85353002  .00175115  00000+0  13308-2 0  9992
2 62556  43.0004 285.5486 0002036 269.6440  90.4194 15.70997546 53410
STARLINK-11478 [DTC]    
1 62557U 25006D   25349.83231140  .00161818  00000+0  12377-2 0  9999
2 62557  42.9995 285.3759 0000942 281.4352  78.6410 15.70886920 53419
STARLINK-11358 [DTC]    
1 62558U 25006E   25349.95415164  .00170838  00000+0  13074-2 0  9990
2 62558  42.9990 284.5659 0002976 297.2019  62.8545 15.70842805 53439
STARLINK-11517 [DTC]    
1 62559U 25006F   25349.20176690  .00142867  00000+0  10935-2 0  9991
2 62559  43.0005 289.2502 0002455 277.7240  82.3349 15.70932395 53319
STARLINK-11519 [DTC]    
1 62560U 25006G   25348.96958863  .00270322  00000+0  20236-2 0  9998
2 62560  42.9978 290.9612 0001863 218.1317 141.9419 15.71060492 53271
STARLINK-11451 [DTC]    
1 62561U 25006H   25349.94352874  .00174006  00000+0  13245-2 0  9992
2 62561  43.0004 284.4791 0001974 229.5268 130.5428 15.70962789 53435
STARLINK-11530 [DTC]    
1 62562U 25006J   25349.28659714  .00186945  00000+0  14152-2 0  9996
2 62562  42.9994 289.0354 0001553 316.5327  43.5419 15.71051934 53327
STARLINK-11536 [DTC]    
1 62563U 25006K   25349.88525728  .00260871  00000+0  19571-2 0  9991
2 62563  42.9998 284.9052 0003735 279.9239  80.1207 15.71033777 53427
STARLINK-11540 [DTC]    
1 62564U 25006L   25349.52501067  .00184010  00000+0  14010-2 0  9996
2 62564  42.9997 287.3737 0001514 315.7273  44.3473 15.70924878 53364
STARLINK-11523 [DTC]    
1 62565U 25006M   25349.53030556  .00167145  00000+0  12749-2 0  9995
2 62565  43.0013 287.4166 0001281 292.3371  67.7360 15.70937426 53360
STARLINK-11525 [DTC]    
1 62566U 25006N   25349.92773077 -.00017263  00000+0 -13141-3 0  9996
2 62566  42.9996 285.2436 0001249 235.5641 124.5109 15.70824284 53425
STARLINK-32752          
1 62567U 25006P   25349.87721737 -.00012994  00000+0 -46322-3 0  9990
2 62567  43.0014  45.9922 0001422 286.3578  73.7117 15.27599929 52044
STARLINK-32760          
1 62568U 25006Q   25349.55543973  .00031597  00000+0  11513-2 0  9991
2 62568  43.0033  47.8616 0001306 273.5541  86.5161 15.27623204 51994
STARLINK-32715          
1 62569U 25006R   25349.89137160  .00021551  00000+0  78969-3 0  9994
2 62569  42.9978  46.0956 0000606  18.3200 341.7673 15.27609245 52048
STARLINK-32764          
1 62570U 25006S   25349.44137322  .00024100  00000+0  88185-3 0  9991
2 62570  43.0030  48.7359 0001325 273.8735  86.1965 15.27602431 51972
STARLINK-32773          
1 62571U 25006T   25349.85924563  .00019942  00000+0  73157-3 0  9999
2 62571  43.0010  45.8572 0001214 282.0845  77.9871 15.27609441 52048
STARLINK-32750          
1 62572U 25006U   25349.51430189  .00019131  00000+0  70386-3 0  9990
2 62572  43.0016  47.5541 0001599 273.8043  86.2625 15.27536136 51997
STARLINK-32771          
1 62573U 25006V   25349.85152388  .00020348  00000+0  74602-3 0  9997
2 62573  42.9978  45.7916 0002174 282.2027  77.8581 15.27619346 52044
STARLINK-32766          
1 62574U 25006W   25349.86951066  .00028769  00000+0  10488-2 0  9995
2 62574  43.0001  45.9315 0003446 276.7801  83.2658 15.27642469 52048
